NORAD_CAT_ID,OBJECT_NAME,OBJECT_TYPE,EPOCH,MEAN_MOTION,ECCENTRICITY,INCLINATION,RA_OF_ASC_NODE,ARG_OF_PERICENTER,MEAN_ANOMALY,BSTAR,MEAN_MOTION_DOT,MEAN_MOTION_DDOT,TLE_LINE0,TLE_LINE1,TLE_LINE2,SEMIMAJOR_AXIS,PERIOD,APOGEE,PERIGEE,DECAYED
47762,STARLINK-2180,PAYLOAD,2021-03-20 22:00:00,15.73255647,0.0001278,53.0462,101.573,69.4466,31.9111,0.00011778,0.00015982,0.0,0 STARLINK-2180,1 47762U 21017AS  21079.91667824  .00015982  00000-0  11778-3 0  9991,2 47762  53.0462 101.5730 0001278  69.4466  31.9111 15.73255647  1774,6727.736999999999,91.53,350.461,348.742,0.0
47762,STARLINK-2180,PAYLOAD,2021-03-21 10:00:01,15.73265223,0.0001361999999999,53.0466,99.091,58.9349,356.0183,-0.0001857,-0.00026678,0.0,0 STARLINK-2180,1 47762U 21017AS  21080.41668981 -.00026678  00000-0 -18570-3 0  9996,2 47762  53.0466  99.0910 0001362  58.9349 356.0183 15.73265223  1801,6727.709,91.529,350.491,348.658,0.0
47762,STARLINK-2180,PAYLOAD,2021-03-21 20:00:01,15.7324513,0.0001091,53.047,97.0189,64.102,192.0564,-0.0010051,-0.00139653,0.0,0 STARLINK-2180,1 47762U 21017AS  21080.83334491 -.00139653  00000-0 -10051-2 0  9991,2 47762  53.0470  97.0189 0001091  64.1020 192.0564 15.73245130  3398,6727.767,91.531,350.366,348.898,0.0
47762,STARLINK-2180,PAYLOAD,2021-03-21 22:00:01,15.73193752,9.84e-05,53.0468,96.6044,64.7107,303.7691,-0.00055345,-0.00077571,0.0,0 STARLINK-2180,1 47762U 21017AS  21080.91668981 -.00077571  00000-0 -55345-3 0  9990,2 47762  53.0468  96.6044 0000984  64.7107 303.7691 15.73193752  1888,6727.913000000001,91.534,350.44,349.116,0.0
47762,STARLINK-2180,PAYLOAD,2021-03-22 04:00:01,15.73144174,9.9e-05,53.0467,95.3614,54.2037,290.9643,-4.4107e-06,-1.237e-05,0.0,0 STARLINK-2180,1 47762U 21017AS  21081.16668981 -.00001237  00000-0 -44107-5 0  9990,2 47762  53.0467  95.3614 0000990  54.2037 290.9643 15.73144174  3441,6728.054,91.536,350.585,349.25300000000016,0.0
47762,STARLINK-2180,PAYLOAD,2021-03-22 14:00:01,15.73147533,0.0001071,53.0465,93.2947,45.5772,140.5763,0.00022202,0.00030588,0.0,0 STARLINK-2180,1 47762U 21017AS  21081.58334491  .00030588  00000-0  22202-3 0  9991,2 47762  53.0465  93.2947 0001071  45.5772 140.5763 15.73147533  1774,6728.045,91.536,350.63,349.189,0.0
47762,STARLINK-2180,PAYLOAD,2021-03-22 22:00:00,15.7314647,8.98e-05,53.0469,91.6376,58.5704,216.4875,0.00062801,0.00088259,0.0,0 STARLINK-2180,1 47762U 21017AS  21081.91667824  .00088259  00000-0  62801-3 0  9994,2 47762  53.0469  91.6376 0000898  58.5704 216.4875 15.73146470  1823,6728.0480000000025,91.536,350.517,349.309,0.0
47762,STARLINK-2180,PAYLOAD,2021-03-23 02:56:04,15.7318511,0.0001,53.0469,90.6154,52.8409,307.27,0.00030072,0.00041774,0.0,0 STARLINK-2180,1 47762U 21017AS  21082.12227411  .00041774  00000-0  30072-3 0  9998,2 47762  53.0469  90.6154 0001000  52.8409 307.2700 15.73185110  3597,6727.938,91.534,350.475,349.13,0.0
47762,STARLINK-2180,PAYLOAD,2021-03-23 12:04:58,15.73069732,2.75e-05,53.0469,88.7222,5.6562,354.4459,-0.00059355,-0.00082654,0.0,0 STARLINK-2180,1 47762U 21017AS  21082.50345998 -.00082654  00000-0 -59355-3 0  9990,2 47762  53.0469  88.7222 0000275   5.6562 354.4459 15.73069732  4306,6728.267,91.541,350.31699999999995,349.94699999999995,0.0
47762,STARLINK-2180,PAYLOAD,2021-03-23 14:00:01,15.72946991,0.0001284999999999,53.047,88.3378,53.5575,39.3137,-0.0082087,-0.01028447,0.0,0 STARLINK-2180,1 47762U 21017AS  21082.58335648 -.01028447  00000-0 -82087-2 0  9997,2 47762  53.0470  88.3378 0001285  53.5575  39.3137 15.72946991  3664,6728.6169999999975,91.548,351.346,349.617,0.0
47762,STARLINK-2180,PAYLOAD,2021-03-23 22:00:00,15.72201295,0.0001334,53.0466,86.6777,57.7915,123.2058,-0.0084615,-0.01026879,0.0,0 STARLINK-2180,1 47762U 21017AS  21082.91667824 -.01026879  00000-0 -84615-2 0  9994,2 47762  53.0466  86.6777 0001334  57.7915 123.2058 15.72201295  1824,6730.744000000002,91.591,353.50699999999995,351.711,0.0
47762,STARLINK-2180,PAYLOAD,2021-03-24 04:00:03,15.71649746,0.0001357,53.047,85.4433,56.4723,100.2081,-0.0087679,-0.01038076,0.0,0 STARLINK-2180,1 47762U 21017AS  21083.16670139 -.01038076  00000-0 -87679-2 0  9990,2 47762  53.0470  85.4433 0001357  56.4723 100.2081 15.71649746  3754,6732.319,91.623,355.097,353.27,0.0
47762,STARLINK-2180,PAYLOAD,2021-03-24 06:00:02,15.71423163,0.0001113,53.0477,85.0197,84.5402,183.8387,-0.0084689,-0.00997222,0.0,0 STARLINK-2180,1 47762U 21017AS  21083.25002315 -.00997222  00000-0 -84689-2 0  9999,2 47762  53.0477  85.0197 0001113  84.5402 183.8387 15.71423163  1779,6732.965999999999,91.637,355.58,354.081,0.0
47762,STARLINK-2180,PAYLOAD,2021-03-24 12:00:00,15.70904543,0.0001128,53.0474,83.7838,84.78200000000002,158.3942,-0.0096382,-0.01098418,0.0,0 STARLINK-2180,1 47762U 21017AS  21083.50001157 -.01098418  00000-0 -96382-2 0  9993,2 47762  53.0474  83.7838 0001128  84.7820 158.3942 15.70904543  3811,6734.448,91.667,357.07199999999995,355.55300000000005,0.0
47762,STARLINK-2180,PAYLOAD,2021-03-24 22:00:00,15.69905631,0.0001313,53.0472,81.7264,50.572,29.5818,-0.010036,-0.01096851,0.0,0 STARLINK-2180,1 47762U 21017AS  21083.91667824 -.01096851  00000-0 -10036-1 0  9997,2 47762  53.0472  81.7264 0001313  50.5720  29.5818 15.69905631  1834,6737.304,91.725,360.05400000000014,358.284,0.0
47762,STARLINK-2180,PAYLOAD,2021-03-25 04:00:00,15.69307375,0.0001276,53.0474,80.4969,49.7921,3.8256,-0.010281,-0.01095929,0.0,0 STARLINK-2180,1 47762U 21017AS  21084.16667824 -.01095929  00000-0 -10281-1 0  9992,2 47762  53.0474  80.4969 0001276  49.7921   3.8256 15.69307375  3918,6739.016,91.76,361.741,360.021,0.0
47762,STARLINK-2180,PAYLOAD,2021-03-25 14:00:01,15.68284519,0.0001154,53.0461,78.4207,70.5424,177.6658,-0.010359,-0.01062087,0.0,0 STARLINK-2180,1 47762U 21017AS  21084.58334491 -.01062087  00000-0 -10359-1 0  9994,2 47762  53.0461  78.4207 0001154  70.5424 177.6658 15.68284519  1761,6741.946,91.82,364.589,363.033,0.0
47762,STARLINK-2180,PAYLOAD,2021-03-25 18:00:02,15.67909333,0.0001277,53.0466,77.5999,59.7901,49.8844,-0.010863,-0.01093049,0.0,0 STARLINK-2180,1 47762U 21017AS  21084.75002315 -.01093049  00000-0 -10863-1 0  9992,2 47762  53.0466  77.5999 0001277  59.7901  49.8844 15.67909333  4003,6743.022,91.842,365.74800000000016,364.025,0.0
47762,STARLINK-2180,PAYLOAD,2021-03-26 08:00:01,15.66516658,0.0001322,53.0467,74.7392,63.9547,98.7062,-0.011469,-0.01090334,0.0,0 STARLINK-2180,1 47762U 21017AS  21085.33334491 -.01090334  00000-0 -11469-1 0  9997,2 47762  53.0467  74.7392 0001322  63.9547  98.7062 15.66516658  4091,6747.017,91.924,369.774,367.99,0.0
47762,STARLINK-2180,PAYLOAD,2021-03-26 20:00:01,15.65322296,0.0001259,53.0466,72.2589,61.5066,41.4441,-0.012024,-0.01106682,0.0,0 STARLINK-2180,1 47762U 21017AS  21085.83334491 -.01106682  00000-0 -12024-1 0  9994,2 47762  53.0466  72.2589 0001259  61.5066  41.4441 15.65322296  4177,6750.449000000001,91.994,373.164,371.464,0.0
47762,STARLINK-2180,PAYLOAD,2021-03-27 00:00:02,15.64925866,0.0001097,53.047,71.4436,66.2533,256.3793,-0.012219,-0.01106781,0.0,0 STARLINK-2180,1 47762U 21017AS  21086.00002315 -.01106781  00000-0 -12219-1 0  9997,2 47762  53.0470  71.4436 0001097  66.2533 256.3793 15.64925866  1844,6751.589,92.017,374.195,372.713,0.0
47762,STARLINK-2180,PAYLOAD,2021-03-27 12:00:00,15.63733373,0.0001145,53.0474,68.9771,83.7012,176.2878,-0.012782,-0.01104213,0.0,0 STARLINK-2180,1 47762U 21017AS  21086.50001157 -.01104213  00000-0 -12782-1 0  9998,2 47762  53.0474  68.9771 0001145  83.7012 176.2878 15.63733373  4285,6755.021,92.087,377.659,376.11300000000006,0.0
47762,STARLINK-2180,PAYLOAD,2021-03-27 22:00:00,15.62741758,0.0001271,53.04600000000001,66.937,58.2992,27.9022,-0.013268,-0.01102333,0.0,0 STARLINK-2180,1 47762U 21017AS  21086.91667824 -.01102333  00000-0 -13268-1 0  9993,2 47762  53.0460  66.9370 0001271  58.2992  27.9022 15.62741758  1822,6757.878000000002,92.146,380.602,378.884,0.0
47762,STARLINK-2180,PAYLOAD,2021-03-28 04:00:01,15.62148145,0.0001219,53.0459,65.7207,57.3642,355.9125,-0.013574,-0.01101784,0.0,0 STARLINK-2180,1 47762U 21017AS  21087.16668981 -.01101784  00000-0 -13574-1 0  9995,2 47762  53.0459  65.7207 0001219  57.3642 355.9125 15.62148145  4383,6759.59,92.181,382.279,380.631,0.0
47762,STARLINK-2180,PAYLOAD,2021-03-28 12:00:00,15.61354779,0.0001217,53.0476,64.0753,76.3255,52.0712,-0.013977,-0.01100032,0.0,0 STARLINK-2180,1 47762U 21017AS  21087.50001157 -.01100032  00000-0 -13977-1 0  9991,2 47762  53.0476  64.0753 0001217  76.3255  52.0712 15.61354779  1812,6761.88,92.228,384.568,382.922,0.0
47762,STARLINK-2180,PAYLOAD,2021-03-28 20:00:01,15.60563659,0.0001256,53.0458,62.449,72.2524,130.377,-0.014397,-0.01098935,0.0,0 STARLINK-2180,1 47762U 21017AS  21087.83334491 -.01098935  00000-0 -14397-1 0  9992,2 47762  53.0458  62.4490 0001256  72.2524 130.3770 15.60563659  4487,6764.165,92.274,386.879,385.18,0.0
47762,STARLINK-2180,PAYLOAD,2021-03-28 22:00:01,15.60335922,0.0001244,53.0473,62.0367,62.332,248.7883,-0.013962,-0.01060136,0.0,0 STARLINK-2180,1 47762U 21017AS  21087.91668981 -.01060136  00000-0 -13962-1 0  9994,2 47762  53.0473  62.0367 0001244  62.3320 248.7883 15.60335922  1761,6764.823,92.288,387.53,385.846,0.0
47762,STARLINK-2180,PAYLOAD,2021-03-29 06:00:02,15.59566808,0.0001084,53.0471,60.4083,67.365,316.786,-0.014775,-0.01086459,0.0,0 STARLINK-2180,1 47762U 21017AS  21088.25002315 -.01086459  00000-0 -14775-1 0  9994,2 47762  53.0471  60.4083 0001084  67.3650 316.7860 15.59566808  1778,6767.047,92.333,389.645,388.17800000000005,0.0
47762,STARLINK-2180,PAYLOAD,2021-03-29 10:00:01,15.59180015,0.0001212,53.0466,59.5987,77.2462,163.0668,-0.01515,-0.01096654,0.0,0 STARLINK-2180,1 47762U 21017AS  21088.41668981 -.01096654  00000-0 -15150-1 0  9995,2 47762  53.0466  59.5987 0001212  77.2462 163.0668 15.59180015  4581,6768.166,92.356,390.851,389.211,0.0
